[{"OBJECT_NAME":"STARLINK-4410","OBJECT_ID":"2022-084R","EPOCH":"2026-03-09T18:18:24.784704","MEAN_MOTION":15.01260106,"ECCENTRICITY":0.00016449,"INCLINATION":97.6024,"RA_OF_ASC_NODE":130.2816,"ARG_OF_PERICENTER":66.7955,"MEAN_ANOMALY":293.3442,"EPHEMERIS_TYPE":0,"CLASSIFICATION_TYPE":"U","NORAD_CAT_ID":53204,"ELEMENT_SET_NO":999,"REV_AT_EPOCH":19998,"BSTAR":-1.027046e-5,"MEAN_MOTION_DOT":-1.9e-6,"MEAN_MOTION_DDOT":0},{"OBJECT_NAME":"COSMOS 2251 DEB","OBJECT_ID":"1993-036BTL","EPOCH":"2026-03-05T23:04:31.790784","MEAN_MOTION":14.99909335,"ECCENTRICITY":0.00032115,"INCLINATION":74.0103,"RA_OF_ASC_NODE":259.8781,"ARG_OF_PERICENTER":226.5417,"MEAN_ANOMALY":133.5503,"EPHEMERIS_TYPE":0,"CLASSIFICATION_TYPE":"U","NORAD_CAT_ID":38220,"ELEMENT_SET_NO":999,"REV_AT_EPOCH":72615,"BSTAR":0.0034301399,"MEAN_MOTION_DOT":0.00042797,"MEAN_MOTION_DDOT":0}]
